[{"OBJECT_NAME":"CSTP 1.2 (STC 1.2)","OBJECT_ID":"2023-091W","EPOCH":"2026-03-09T23:12:27.821952","MEAN_MOTION":15.2718076,"ECCENTRICITY":0.00204388,"INCLINATION":97.5258,"RA_OF_ASC_NODE":134.3262,"ARG_OF_PERICENTER":84.9592,"MEAN_ANOMALY":275.3979,"EPHEMERIS_TYPE":0,"CLASSIFICATION_TYPE":"U","NORAD_CAT_ID":57186,"ELEMENT_SET_NO":999,"REV_AT_EPOCH":14930,"BSTAR":0.00043035718,"MEAN_MOTION_DOT":0.00011466,"MEAN_MOTION_DDOT":0},{"OBJECT_NAME":"STARLINK-31978","OBJECT_ID":"2024-111A","EPOCH":"2026-03-09T23:33:23.656320","MEAN_MOTION":15.30189322,"ECCENTRICITY":0.0001178,"INCLINATION":53.1608,"RA_OF_ASC_NODE":74.5958,"ARG_OF_PERICENTER":101.0877,"MEAN_ANOMALY":259.0256,"EPHEMERIS_TYPE":0,"CLASSIFICATION_TYPE":"U","NORAD_CAT_ID":60016,"ELEMENT_SET_NO":999,"REV_AT_EPOCH":9897,"BSTAR":1.3113826e-5,"MEAN_MOTION_DOT":2.9e-7,"MEAN_MOTION_DDOT":0}]
